STARLINK-2094           
1 47375U 21005AC  23320.78566407  .00022684  00000+0  15370-2 0  9996
2 47375  53.0543 250.0550 0001184 107.3384 252.7734 15.06396508155841
STARLINK-2096           
1 47376U 21005AD  23321.12109134 -.00000320  00000+0 -25779-5 0  9998
2 47376  53.0545 248.5532 0001555 117.3385 242.7763 15.06370781155891
STARLINK-2097           
1 47377U 21005AE  23321.03999607  .00003701  00000+0  26722-3 0  9992
2 47377  53.0550 248.9036 0001485  75.1810 284.9344 15.06398621155882
STARLINK-2098           
1 47378U 21005AF  23321.09897140  .00001342  00000+0  10899-3 0  9995
2 47378  53.0524 208.6446 0001547  84.4187 275.6979 15.06400150156457
STARLINK-2099           
1 47379U 21005AG  23321.10539772  .00000429  00000+0  47664-4 0  9998
2 47379  53.0538 208.6045 0001151 102.1791 257.9327 15.06393533156454
STARLINK-2100           
1 47380U 21005AH  23320.73682596  .00005658  00000+0  39853-3 0  9990
2 47380  53.0529 220.2727 0002175  90.5823 269.5415 15.06393743156265
STARLINK-2101           
1 47381U 21005AJ  23320.75296872  .00007366  00000+0  51287-3 0  9994
2 47381  53.0532 225.2868 0001672  73.0621 287.0551 15.06399212156199
STARLINK-2102           
1 47382U 21005AK  23320.72946739 -.00007671  00000+0 -49687-3 0  9998
2 47382  53.0543 220.3102 0001738  65.9872 294.1299 15.06381819156259
STARLINK-2103           
1 47383U 21005AL  23320.70829475  .00003584  00000+0  25937-3 0  9993
2 47383  53.0540 210.6807 0001826  94.6577 265.4621 15.06398321156391
STARLINK-2104           
1 47384U 21005AM  23321.11282459 -.00002004  00000+0 -11570-3 0  9991
2 47384  53.0531 218.8254 0001553  85.7922 274.3244 15.06400540156926
STARLINK-2105           
1 47385U 21005AN  23320.11389656  .00010454  00000+0  71955-3 0  9997
2 47385  53.0550 223.0681 0001587  84.9119 275.2051 15.06407206156164
STARLINK-2106           
1 47386U 21005AP  23321.13859796  .00009464  00000+0  65322-3 0  9998
2 47386  53.0540 218.4677 0001420  81.8904 278.2246 15.06407971156945
STARLINK-2108           
1 47387U 21005AQ  23320.79303296  .00004381  00000+0  31285-3 0  9993
2 47387  53.0551 250.0190 0001743 131.2533 228.8606 15.06397700155843
STARLINK-2109           
1 47388U 21005AR  23321.00682788  .00013221  00000+0  90476-3 0  9995
2 47388  53.0542 249.0603 0002086  75.5635 284.5586 15.06400646156835
STARLINK-2110           
1 47389U 21005AS  23320.78656780  .00017368  00000+0  11823-2 0  9997
2 47389  53.0538 230.0362 0001637  71.1421 288.9745 15.06389791156123
STARLINK-2111           
1 47390U 21005AT  23321.11370782  .00017592  00000+0  11971-2 0  9995
2 47390  53.0548 248.5787 0001473 145.4552 214.6533 15.06395425155894
