[{"OBJECT_NAME":"STARLINK-2094","OBJECT_ID":"2021-005AC","EPOCH":"2023-11-16T18:51:21.375648","MEAN_MOTION":15.06396508,"ECCENTRICITY":0.0001184,"INCLINATION":53.0543,"RA_OF_ASC_NODE":250.055,"ARG_OF_PERICENTER":107.3384,"MEAN_ANOMALY":252.7734,"EPHEMERIS_TYPE":0,"CLASSIFICATION_TYPE":"U","NORAD_CAT_ID":47375,"ELEMENT_SET_NO":999,"REV_AT_EPOCH":15584,"BSTAR":0.001537,"MEAN_MOTION_DOT":0.00022684,"MEAN_MOTION_DDOT":0},{"OBJECT_NAME":"STARLINK-2096","OBJECT_ID":"2021-005AD","EPOCH":"2023-11-17T02:54:22.291776","MEAN_MOTION":15.06370781,"ECCENTRICITY":0.0001555,"INCLINATION":53.0545,"RA_OF_ASC_NODE":248.5532,"ARG_OF_PERICENTER":117.3385,"MEAN_ANOMALY":242.7763,"EPHEMERIS_TYPE":0,"CLASSIFICATION_TYPE":"U","NORAD_CAT_ID":47376,"ELEMENT_SET_NO":999,"REV_AT_EPOCH":15589,"BSTAR":-2.5779e-6,"MEAN_MOTION_DOT":-3.2e-6,"MEAN_MOTION_DDOT":0},{"OBJECT_NAME":"STARLINK-2097","OBJECT_ID":"2021-005AE","EPOCH":"2023-11-17T00:57:35.660448","MEAN_MOTION":15.06398621,"ECCENTRICITY":0.0001485,"INCLINATION":53.055,"RA_OF_ASC_NODE":248.9036,"ARG_OF_PERICENTER":75.181,"MEAN_ANOMALY":284.9344,"EPHEMERIS_TYPE":0,"CLASSIFICATION_TYPE":"U","NORAD_CAT_ID":47377,"ELEMENT_SET_NO":999,"REV_AT_EPOCH":15588,"BSTAR":0.00026722,"MEAN_MOTION_DOT":3.701e-5,"MEAN_MOTION_DDOT":0},{"OBJECT_NAME":"STARLINK-2098","OBJECT_ID":"2021-005AF","EPOCH":"2023-11-17T02:22:31.128960","MEAN_MOTION":15.0640015,"ECCENTRICITY":0.0001547,"INCLINATION":53.0524,"RA_OF_ASC_NODE":208.6446,"ARG_OF_PERICENTER":84.4187,"MEAN_ANOMALY":275.6979,"EPHEMERIS_TYPE":0,"CLASSIFICATION_TYPE":"U","NORAD_CAT_ID":47378,"ELEMENT_SET_NO":999,"REV_AT_EPOCH":15645,"BSTAR":0.00010899,"MEAN_MOTION_DOT":1.342e-5,"MEAN_MOTION_DDOT":0},{"OBJECT_NAME":"STARLINK-2099","OBJECT_ID":"2021-005AG","EPOCH":"2023-11-17T02:31:46.363008","MEAN_MOTION":15.06393533,"ECCENTRICITY":0.0001151,"INCLINATION":53.0538,"RA_OF_ASC_NODE":208.6045,"ARG_OF_PERICENTER":102.1791,"MEAN_ANOMALY":257.9327,"EPHEMERIS_TYPE":0,"CLASSIFICATION_TYPE":"U","NORAD_CAT_ID":47379,"ELEMENT_SET_NO":999,"REV_AT_EPOCH":15645,"BSTAR":4.7664e-5,"MEAN_MOTION_DOT":4.29e-6,"MEAN_MOTION_DDOT":0},{"OBJECT_NAME":"STARLINK-2100","OBJECT_ID":"2021-005AH","EPOCH":"2023-11-16T17:41:01.762944","MEAN_MOTION":15.06393743,"ECCENTRICITY":0.0002175,"INCLINATION":53.0529,"RA_OF_ASC_NODE":220.2727,"ARG_OF_PERICENTER":90.5823,"MEAN_ANOMALY":269.5415,"EPHEMERIS_TYPE":0,"CLASSIFICATION_TYPE":"U","NORAD_CAT_ID":47380,"ELEMENT_SET_NO":999,"REV_AT_EPOCH":15626,"BSTAR":0.00039853,"MEAN_MOTION_DOT":5.658e-5,"MEAN_MOTION_DDOT":0},{"OBJECT_NAME":"STARLINK-2101","OBJECT_ID":"2021-005AJ","EPOCH":"2023-11-16T18:04:16.497408","MEAN_MOTION":15.06399212,"ECCENTRICITY":0.0001672,"INCLINATION":53.0532,"RA_OF_ASC_NODE":225.2868,"ARG_OF_PERICENTER":73.0621,"MEAN_ANOMALY":287.0551,"EPHEMERIS_TYPE":0,"CLASSIFICATION_TYPE":"U","NORAD_CAT_ID":47381,"ELEMENT_SET_NO":999,"REV_AT_EPOCH":15619,"BSTAR":0.00051287,"MEAN_MOTION_DOT":7.366e-5,"MEAN_MOTION_DDOT":0},{"OBJECT_NAME":"STARLINK-2102","OBJECT_ID":"2021-005AK","EPOCH":"2023-11-16T17:30:25.982496","MEAN_MOTION":15.06381819,"ECCENTRICITY":0.0001738,"INCLINATION":53.0543,"RA_OF_ASC_NODE":220.3102,"ARG_OF_PERICENTER":65.9872,"MEAN_ANOMALY":294.1299,"EPHEMERIS_TYPE":0,"CLASSIFICATION_TYPE":"U","NORAD_CAT_ID":47382,"ELEMENT_SET_NO":999,"REV_AT_EPOCH":15625,"BSTAR":-0.00049687,"MEAN_MOTION_DOT":-7.671e-5,"MEAN_MOTION_DDOT":0},{"OBJECT_NAME":"STARLINK-2103","OBJECT_ID":"2021-005AL","EPOCH":"2023-11-16T16:59:56.666400","MEAN_MOTION":15.06398321,"ECCENTRICITY":0.0001826,"INCLINATION":53.054,"RA_OF_ASC_NODE":210.6807,"ARG_OF_PERICENTER":94.6577,"MEAN_ANOMALY":265.4621,"EPHEMERIS_TYPE":0,"CLASSIFICATION_TYPE":"U","NORAD_CAT_ID":47383,"ELEMENT_SET_NO":999,"REV_AT_EPOCH":15639,"BSTAR":0.00025937,"MEAN_MOTION_DOT":3.584e-5,"MEAN_MOTION_DDOT":0},{"OBJECT_NAME":"STARLINK-2104","OBJECT_ID":"2021-005AM","EPOCH":"2023-11-17T02:42:28.044576","MEAN_MOTION":15.0640054,"ECCENTRICITY":0.0001553,"INCLINATION":53.0531,"RA_OF_ASC_NODE":218.8254,"ARG_OF_PERICENTER":85.7922,"MEAN_ANOMALY":274.3244,"EPHEMERIS_TYPE":0,"CLASSIFICATION_TYPE":"U","NORAD_CAT_ID":47384,"ELEMENT_SET_NO":999,"REV_AT_EPOCH":15692,"BSTAR":-0.0001157,"MEAN_MOTION_DOT":-2.004e-5,"MEAN_MOTION_DDOT":0},{"OBJECT_NAME":"STARLINK-2105","OBJECT_ID":"2021-005AN","EPOCH":"2023-11-16T02:44:00.662784","MEAN_MOTION":15.06407206,"ECCENTRICITY":0.0001587,"INCLINATION":53.055,"RA_OF_ASC_NODE":223.0681,"ARG_OF_PERICENTER":84.9119,"MEAN_ANOMALY":275.2051,"EPHEMERIS_TYPE":0,"CLASSIFICATION_TYPE":"U","NORAD_CAT_ID":47385,"ELEMENT_SET_NO":999,"REV_AT_EPOCH":15616,"BSTAR":0.00071955,"MEAN_MOTION_DOT":0.00010454,"MEAN_MOTION_DDOT":0},{"OBJECT_NAME":"STARLINK-2106","OBJECT_ID":"2021-005AP","EPOCH":"2023-11-17T03:19:34.863744","MEAN_MOTION":15.06407971,"ECCENTRICITY":0.000142,"INCLINATION":53.054,"RA_OF_ASC_NODE":218.4677,"ARG_OF_PERICENTER":81.8904,"MEAN_ANOMALY":278.2246,"EPHEMERIS_TYPE":0,"CLASSIFICATION_TYPE":"U","NORAD_CAT_ID":47386,"ELEMENT_SET_NO":999,"REV_AT_EPOCH":15694,"BSTAR":0.00065322,"MEAN_MOTION_DOT":9.464e-5,"MEAN_MOTION_DDOT":0},{"OBJECT_NAME":"STARLINK-2108","OBJECT_ID":"2021-005AQ","EPOCH":"2023-11-16T19:01:58.047744","MEAN_MOTION":15.063977,"ECCENTRICITY":0.0001743,"INCLINATION":53.0551,"RA_OF_ASC_NODE":250.019,"ARG_OF_PERICENTER":131.2533,"MEAN_ANOMALY":228.8606,"EPHEMERIS_TYPE":0,"CLASSIFICATION_TYPE":"U","NORAD_CAT_ID":47387,"ELEMENT_SET_NO":999,"REV_AT_EPOCH":15584,"BSTAR":0.00031285,"MEAN_MOTION_DOT":4.381e-5,"MEAN_MOTION_DDOT":0},{"OBJECT_NAME":"STARLINK-2109","OBJECT_ID":"2021-005AR","EPOCH":"2023-11-17T00:09:49.928832","MEAN_MOTION":15.06400646,"ECCENTRICITY":0.0002086,"INCLINATION":53.0542,"RA_OF_ASC_NODE":249.0603,"ARG_OF_PERICENTER":75.5635,"MEAN_ANOMALY":284.5586,"EPHEMERIS_TYPE":0,"CLASSIFICATION_TYPE":"U","NORAD_CAT_ID":47388,"ELEMENT_SET_NO":999,"REV_AT_EPOCH":15683,"BSTAR":0.00090476,"MEAN_MOTION_DOT":0.00013221,"MEAN_MOTION_DDOT":0},{"OBJECT_NAME":"STARLINK-2110","OBJECT_ID":"2021-005AS","EPOCH":"2023-11-16T18:52:39.457920","MEAN_MOTION":15.06389791,"ECCENTRICITY":0.0001637,"INCLINATION":53.0538,"RA_OF_ASC_NODE":230.0362,"ARG_OF_PERICENTER":71.1421,"MEAN_ANOMALY":288.9745,"EPHEMERIS_TYPE":0,"CLASSIFICATION_TYPE":"U","NORAD_CAT_ID":47389,"ELEMENT_SET_NO":999,"REV_AT_EPOCH":15612,"BSTAR":0.0011823,"MEAN_MOTION_DOT":0.00017368,"MEAN_MOTION_DDOT":0},{"OBJECT_NAME":"STARLINK-2111","OBJECT_ID":"2021-005AT","EPOCH":"2023-11-17T02:43:44.355648","MEAN_MOTION":15.06395425,"ECCENTRICITY":0.0001473,"INCLINATION":53.0548,"RA_OF_ASC_NODE":248.5787,"ARG_OF_PERICENTER":145.4552,"MEAN_ANOMALY":214.6533,"EPHEMERIS_TYPE":0,"CLASSIFICATION_TYPE":"U","NORAD_CAT_ID":47390,"ELEMENT_SET_NO":999,"REV_AT_EPOCH":15589,"BSTAR":0.0011971,"MEAN_MOTION_DOT":0.00017592,"MEAN_MOTION_DDOT":0}]
